{
  "type": "FeatureCollection",
  "features": [
    {
      "type": "Feature",
      "properties": {
        "name": "Wellington commuter belt",
        "description": "Wellington, Porirua, Lower Hutt, Upper Hutt, and the Kāpiti Coast"
      },
      "geometry": {
        "type": "Polygon",
        "coordinates": [
          [
            [174.65, -41.36],
            [174.78, -41.4],
            [174.95, -41.38],
            [175.08, -41.28],
            [175.18, -41.18],
            [175.22, -41.05],
            [175.2, -40.9],
            [175.12, -40.78],
            [174.98, -40.72],
            [174.85, -40.78],
            [174.72, -40.95],
            [174.66, -41.12],
            [174.62, -41.25],
            [174.65, -41.36]
          ]
        ]
      }
    }
  ]
}
